[{"OBJECT_NAME":"STARLINK-35567","OBJECT_ID":"2025-262S","EPOCH":"2026-03-18T17:44:57.766272","MEAN_MOTION":15.27585684,"ECCENTRICITY":0.0001713,"INCLINATION":42.9983,"RA_OF_ASC_NODE":244.7834,"ARG_OF_PERICENTER":273.7999,"MEAN_ANOMALY":86.2657,"EPHEMERIS_TYPE":0,"CLASSIFICATION_TYPE":"U","NORAD_CAT_ID":66472,"ELEMENT_SET_NO":999,"REV_AT_EPOCH":2029,"BSTAR":0.0006609,"MEAN_MOTION_DOT":0.00017972,"MEAN_MOTION_DDOT":0},{"OBJECT_NAME":"STARLINK-35568","OBJECT_ID":"2025-262T","EPOCH":"2026-03-18T20:31:16.738176","MEAN_MOTION":15.27532858,"ECCENTRICITY":0.0001015,"INCLINATION":42.9974,"RA_OF_ASC_NODE":244.7913,"ARG_OF_PERICENTER":205.8305,"MEAN_ANOMALY":154.2496,"EPHEMERIS_TYPE":0,"CLASSIFICATION_TYPE":"U","NORAD_CAT_ID":66473,"ELEMENT_SET_NO":999,"REV_AT_EPOCH":2030,"BSTAR":0.00091656,"MEAN_MOTION_DOT":0.00025009,"MEAN_MOTION_DDOT":0},{"OBJECT_NAME":"STARLINK-35620","OBJECT_ID":"2025-262U","EPOCH":"2026-03-18T17:57:54.302688","MEAN_MOTION":15.27581092,"ECCENTRICITY":0.0001848,"INCLINATION":42.998,"RA_OF_ASC_NODE":244.8504,"ARG_OF_PERICENTER":282.1896,"MEAN_ANOMALY":77.8749,"EPHEMERIS_TYPE":0,"CLASSIFICATION_TYPE":"U","NORAD_CAT_ID":66474,"ELEMENT_SET_NO":999,"REV_AT_EPOCH":2029,"BSTAR":0.00062741,"MEAN_MOTION_DOT":0.00017044,"MEAN_MOTION_DDOT":0},{"OBJECT_NAME":"STARLINK-35538","OBJECT_ID":"2025-262V","EPOCH":"2026-03-18T18:46:00.873120","MEAN_MOTION":15.27602614,"ECCENTRICITY":0.0001784,"INCLINATION":43.0035,"RA_OF_ASC_NODE":245.1017,"ARG_OF_PERICENTER":274.2106,"MEAN_ANOMALY":85.8542,"EPHEMERIS_TYPE":0,"CLASSIFICATION_TYPE":"U","NORAD_CAT_ID":66475,"ELEMENT_SET_NO":999,"REV_AT_EPOCH":2029,"BSTAR":0.00080365,"MEAN_MOTION_DOT":0.00021934,"MEAN_MOTION_DDOT":0},{"OBJECT_NAME":"STARLINK-35372","OBJECT_ID":"2025-262W","EPOCH":"2026-03-18T18:21:57.571488","MEAN_MOTION":15.27588549,"ECCENTRICITY":0.0001065,"INCLINATION":43.0011,"RA_OF_ASC_NODE":244.9748,"ARG_OF_PERICENTER":286.2579,"MEAN_ANOMALY":73.8155,"EPHEMERIS_TYPE":0,"CLASSIFICATION_TYPE":"U","NORAD_CAT_ID":66476,"ELEMENT_SET_NO":999,"REV_AT_EPOCH":2018,"BSTAR":0.00062462,"MEAN_MOTION_DOT":0.0001697,"MEAN_MOTION_DDOT":0},{"OBJECT_NAME":"STARLINK-35354","OBJECT_ID":"2025-262X","EPOCH":"2026-03-18T17:54:12.194208","MEAN_MOTION":15.27582474,"ECCENTRICITY":0.0001718,"INCLINATION":42.9976,"RA_OF_ASC_NODE":244.8274,"ARG_OF_PERICENTER":268.948,"MEAN_ANOMALY":91.1175,"EPHEMERIS_TYPE":0,"CLASSIFICATION_TYPE":"U","NORAD_CAT_ID":66477,"ELEMENT_SET_NO":999,"REV_AT_EPOCH":2029,"BSTAR":0.00095,"MEAN_MOTION_DOT":0.00025974,"MEAN_MOTION_DDOT":0},{"OBJECT_NAME":"STARLINK-35283","OBJECT_ID":"2025-262Y","EPOCH":"2026-03-18T18:42:18.584928","MEAN_MOTION":15.27603625,"ECCENTRICITY":0.0001732,"INCLINATION":43.0047,"RA_OF_ASC_NODE":245.0798,"ARG_OF_PERICENTER":260.4078,"MEAN_ANOMALY":99.6578,"EPHEMERIS_TYPE":0,"CLASSIFICATION_TYPE":"U","NORAD_CAT_ID":66478,"ELEMENT_SET_NO":999,"REV_AT_EPOCH":2029,"BSTAR":0.00061163,"MEAN_MOTION_DOT":0.00016619,"MEAN_MOTION_DDOT":0},{"OBJECT_NAME":"STARLINK-35581","OBJECT_ID":"2025-262Z","EPOCH":"2026-03-18T19:06:09.283392","MEAN_MOTION":15.27594267,"ECCENTRICITY":0.0001495,"INCLINATION":43.0024,"RA_OF_ASC_NODE":244.3444,"ARG_OF_PERICENTER":256.0223,"MEAN_ANOMALY":104.0463,"EPHEMERIS_TYPE":0,"CLASSIFICATION_TYPE":"U","NORAD_CAT_ID":66479,"ELEMENT_SET_NO":999,"REV_AT_EPOCH":2030,"BSTAR":0.00078102,"MEAN_MOTION_DOT":0.00021301,"MEAN_MOTION_DDOT":0},{"OBJECT_NAME":"STARLINK-35670","OBJECT_ID":"2025-262AA","EPOCH":"2026-03-18T18:29:22.579008","MEAN_MOTION":15.27568325,"ECCENTRICITY":0.0001284,"INCLINATION":43.0014,"RA_OF_ASC_NODE":245.0129,"ARG_OF_PERICENTER":295.9334,"MEAN_ANOMALY":64.1386,"EPHEMERIS_TYPE":0,"CLASSIFICATION_TYPE":"U","NORAD_CAT_ID":66480,"ELEMENT_SET_NO":999,"REV_AT_EPOCH":2029,"BSTAR":0.0006518,"MEAN_MOTION_DOT":0.00017711,"MEAN_MOTION_DDOT":0},{"OBJECT_NAME":"STARLINK-35698","OBJECT_ID":"2025-262AB","EPOCH":"2026-03-18T19:09:51.339168","MEAN_MOTION":15.27592831,"ECCENTRICITY":0.0001763,"INCLINATION":43.0014,"RA_OF_ASC_NODE":244.3601,"ARG_OF_PERICENTER":264.1969,"MEAN_ANOMALY":95.8682,"EPHEMERIS_TYPE":0,"CLASSIFICATION_TYPE":"U","NORAD_CAT_ID":66481,"ELEMENT_SET_NO":999,"REV_AT_EPOCH":2030,"BSTAR":0.00066682,"MEAN_MOTION_DOT":0.0001814,"MEAN_MOTION_DDOT":0},{"OBJECT_NAME":"STARLINK-35648","OBJECT_ID":"2025-262AC","EPOCH":"2026-03-18T18:01:36.302304","MEAN_MOTION":15.27585405,"ECCENTRICITY":0.0001873,"INCLINATION":42.998,"RA_OF_ASC_NODE":244.8629,"ARG_OF_PERICENTER":273.8948,"MEAN_ANOMALY":86.1689,"EPHEMERIS_TYPE":0,"CLASSIFICATION_TYPE":"U","NORAD_CAT_ID":66482,"ELEMENT_SET_NO":999,"REV_AT_EPOCH":2013,"BSTAR":0.00087625,"MEAN_MOTION_DOT":0.00023933,"MEAN_MOTION_DDOT":0},{"OBJECT_NAME":"STARLINK-35654","OBJECT_ID":"2025-262AD","EPOCH":"2026-03-18T17:46:48.149184","MEAN_MOTION":15.27586626,"ECCENTRICITY":8.5e-5,"INCLINATION":42.9991,"RA_OF_ASC_NODE":244.7868,"ARG_OF_PERICENTER":243.7146,"MEAN_ANOMALY":116.3618,"EPHEMERIS_TYPE":0,"CLASSIFICATION_TYPE":"U","NORAD_CAT_ID":66483,"ELEMENT_SET_NO":999,"REV_AT_EPOCH":2029,"BSTAR":0.00078827,"MEAN_MOTION_DOT":0.00021497,"MEAN_MOTION_DDOT":0},{"OBJECT_NAME":"STARLINK-35371","OBJECT_ID":"2025-262AE","EPOCH":"2026-03-18T17:26:39.737184","MEAN_MOTION":15.2758296,"ECCENTRICITY":0.0001498,"INCLINATION":43.0012,"RA_OF_ASC_NODE":245.5458,"ARG_OF_PERICENTER":266.2068,"MEAN_ANOMALY":93.8612,"EPHEMERIS_TYPE":0,"CLASSIFICATION_TYPE":"U","NORAD_CAT_ID":66484,"ELEMENT_SET_NO":999,"REV_AT_EPOCH":2028,"BSTAR":0.00031901,"MEAN_MOTION_DOT":8.527e-5,"MEAN_MOTION_DDOT":0},{"OBJECT_NAME":"STARLINK-34774","OBJECT_ID":"2025-263A","EPOCH":"2026-03-18T14:12:04.711680","MEAN_MOTION":15.27586759,"ECCENTRICITY":0.00012,"INCLINATION":43.0018,"RA_OF_ASC_NODE":300.1475,"ARG_OF_PERICENTER":280.1026,"MEAN_ANOMALY":79.969,"EPHEMERIS_TYPE":0,"CLASSIFICATION_TYPE":"U","NORAD_CAT_ID":66485,"ELEMENT_SET_NO":999,"REV_AT_EPOCH":2026,"BSTAR":0.00051258,"MEAN_MOTION_DOT":0.00013872,"MEAN_MOTION_DDOT":0},{"OBJECT_NAME":"STARLINK-34844","OBJECT_ID":"2025-263B","EPOCH":"2026-03-18T14:10:13.351584","MEAN_MOTION":15.27597951,"ECCENTRICITY":0.0001208,"INCLINATION":43.0005,"RA_OF_ASC_NODE":300.1325,"ARG_OF_PERICENTER":283.8631,"MEAN_ANOMALY":76.2086,"EPHEMERIS_TYPE":0,"CLASSIFICATION_TYPE":"U","NORAD_CAT_ID":66486,"ELEMENT_SET_NO":999,"REV_AT_EPOCH":2021,"BSTAR":0.00029649,"MEAN_MOTION_DOT":7.91e-5,"MEAN_MOTION_DDOT":0},{"OBJECT_NAME":"STARLINK-34733","OBJECT_ID":"2025-263C","EPOCH":"2026-03-18T15:40:39.848736","MEAN_MOTION":15.275842,"ECCENTRICITY":0.0001739,"INCLINATION":43.0007,"RA_OF_ASC_NODE":299.7448,"ARG_OF_PERICENTER":280.9571,"MEAN_ANOMALY":79.1085,"EPHEMERIS_TYPE":0,"CLASSIFICATION_TYPE":"U","NORAD_CAT_ID":66487,"ELEMENT_SET_NO":999,"REV_AT_EPOCH":2027,"BSTAR":0.00066542,"MEAN_MOTION_DOT":0.00018096,"MEAN_MOTION_DDOT":0},{"OBJECT_NAME":"STARLINK-35515","OBJECT_ID":"2025-263D","EPOCH":"2026-03-18T15:57:20.157696","MEAN_MOTION":15.27603379,"ECCENTRICITY":0.0001455,"INCLINATION":42.9998,"RA_OF_ASC_NODE":299.8268,"ARG_OF_PERICENTER":287.176,"MEAN_ANOMALY":72.8932,"EPHEMERIS_TYPE":0,"CLASSIFICATION_TYPE":"U","NORAD_CAT_ID":66488,"ELEMENT_SET_NO":999,"REV_AT_EPOCH":2027,"BSTAR":0.00054137,"MEAN_MOTION_DOT":0.00014675,"MEAN_MOTION_DDOT":0},{"OBJECT_NAME":"STARLINK-35696","OBJECT_ID":"2025-263E","EPOCH":"2026-03-18T20:58:20.079264","MEAN_MOTION":15.27575007,"ECCENTRICITY":0.0001583,"INCLINATION":43.0005,"RA_OF_ASC_NODE":298.8155,"ARG_OF_PERICENTER":246.0637,"MEAN_ANOMALY":114.0049,"EPHEMERIS_TYPE":0,"CLASSIFICATION_TYPE":"U","NORAD_CAT_ID":66489,"ELEMENT_SET_NO":999,"REV_AT_EPOCH":2030,"BSTAR":0.00081727,"MEAN_MOTION_DOT":0.00022292,"MEAN_MOTION_DDOT":0},{"OBJECT_NAME":"STARLINK-35693","OBJECT_ID":"2025-263F","EPOCH":"2026-03-18T15:49:55.724736","MEAN_MOTION":15.27599275,"ECCENTRICITY":0.0001379,"INCLINATION":43.0015,"RA_OF_ASC_NODE":299.794,"ARG_OF_PERICENTER":265.6375,"MEAN_ANOMALY":94.4319,"EPHEMERIS_TYPE":0,"CLASSIFICATION_TYPE":"U","NORAD_CAT_ID":66490,"ELEMENT_SET_NO":999,"REV_AT_EPOCH":2027,"BSTAR":0.00032159,"MEAN_MOTION_DOT":8.603e-5,"MEAN_MOTION_DDOT":0},{"OBJECT_NAME":"STARLINK-35663","OBJECT_ID":"2025-263G","EPOCH":"2026-03-18T14:54:37.201824","MEAN_MOTION":15.27630671,"ECCENTRICITY":0.0002429,"INCLINATION":43.0032,"RA_OF_ASC_NODE":300.3579,"ARG_OF_PERICENTER":260.6456,"MEAN_ANOMALY":99.4121,"EPHEMERIS_TYPE":0,"CLASSIFICATION_TYPE":"U","NORAD_CAT_ID":66491,"ELEMENT_SET_NO":999,"REV_AT_EPOCH":2026,"BSTAR":0.0010379,"MEAN_MOTION_DOT":0.00028453,"MEAN_MOTION_DDOT":0},{"OBJECT_NAME":"STARLINK-35673","OBJECT_ID":"2025-263H","EPOCH":"2026-03-18T16:12:08.175168","MEAN_MOTION":15.27596195,"ECCENTRICITY":0.0001833,"INCLINATION":43.0014,"RA_OF_ASC_NODE":299.9092,"ARG_OF_PERICENTER":271.0604,"MEAN_ANOMALY":89.0038,"EPHEMERIS_TYPE":0,"CLASSIFICATION_TYPE":"U","NORAD_CAT_ID":66492,"ELEMENT_SET_NO":999,"REV_AT_EPOCH":2027,"BSTAR":0.0005842,"MEAN_MOTION_DOT":0.00015856,"MEAN_MOTION_DDOT":0},{"OBJECT_NAME":"STARLINK-35597","OBJECT_ID":"2025-263J","EPOCH":"2026-03-18T21:29:45.748032","MEAN_MOTION":15.27578453,"ECCENTRICITY":0.0001867,"INCLINATION":42.9991,"RA_OF_ASC_NODE":298.9819,"ARG_OF_PERICENTER":268.0333,"MEAN_ANOMALY":92.0305,"EPHEMERIS_TYPE":0,"CLASSIFICATION_TYPE":"U","NORAD_CAT_ID":66493,"ELEMENT_SET_NO":999,"REV_AT_EPOCH":2030,"BSTAR":0.00092938,"MEAN_MOTION_DOT":0.000254,"MEAN_MOTION_DDOT":0},{"OBJECT_NAME":"STARLINK-35689","OBJECT_ID":"2025-263K","EPOCH":"2026-03-18T07:33:26.846784","MEAN_MOTION":15.27615207,"ECCENTRICITY":0.00027518,"INCLINATION":42.998,"RA_OF_ASC_NODE":302.367,"ARG_OF_PERICENTER":280.6082,"MEAN_ANOMALY":79.446,"EPHEMERIS_TYPE":0,"CLASSIFICATION_TYPE":"U","NORAD_CAT_ID":66494,"ELEMENT_SET_NO":999,"REV_AT_EPOCH":2021,"BSTAR":0.0005979232,"MEAN_MOTION_DOT":0.00016246,"MEAN_MOTION_DDOT":0}]
